[{"OBJECT_NAME":"STARLINK-5749","OBJECT_ID":"2023-020A","EPOCH":"2026-03-09T05:09:26.997120","MEAN_MOTION":15.02529474,"ECCENTRICITY":6.57e-5,"INCLINATION":43.0028,"RA_OF_ASC_NODE":7.5869,"ARG_OF_PERICENTER":252.1909,"MEAN_ANOMALY":107.8862,"EPHEMERIS_TYPE":0,"CLASSIFICATION_TYPE":"U","NORAD_CAT_ID":55569,"ELEMENT_SET_NO":999,"REV_AT_EPOCH":16991,"BSTAR":0.00017075481,"MEAN_MOTION_DOT":2.103e-5,"MEAN_MOTION_DDOT":0},{"OBJECT_NAME":"CZ-6A DEB","OBJECT_ID":"2022-151VS","EPOCH":"2026-03-09T04:51:15.060960","MEAN_MOTION":14.9137966,"ECCENTRICITY":0.00559122,"INCLINATION":98.6335,"RA_OF_ASC_NODE":146.9052,"ARG_OF_PERICENTER":180.6585,"MEAN_ANOMALY":179.4567,"EPHEMERIS_TYPE":0,"CLASSIFICATION_TYPE":"U","NORAD_CAT_ID":55201,"ELEMENT_SET_NO":999,"REV_AT_EPOCH":17149,"BSTAR":0.0042126159,"MEAN_MOTION_DOT":0.00043496,"MEAN_MOTION_DDOT":0}]
